     3.00           N                   E                   RINEX VERSION / TYPE
BRD_USR             ESA                 20190107 181859  UTCPGM / RUN BY / DATE
 GAL   5.2500E+01  2.7344E-02 -4.9438E-03  0.0000E+00       IONOSPHERIC CORR
GAUT  0.0000000000E+00 0.000000000E+00  86400 2035 GSTB   0 TIME SYSTEM CORR
GPGA -3.7834979594E-10 1.065814104E-14 172800 2035 GSTB   0 TIME SYSTEM CORR
                                                            END OF HEADER
E07 2019 01 07 16 10 00-1.082143862732E-04-7.091216502886E-12 0.000000000000E+00
     1.130000000000E+02 3.368750000000E+01 3.573005972898E-09-1.988174002628E-01
     1.646578311920E-06 1.387229422107E-04 6.990507245064E-06 5.440613004684E+03
     1.446000000000E+05 7.450580596924E-09 1.243763513708E+00-4.284083843231E-08
     9.523012845424E-01 1.893125000000E+02 2.689906093386E-02-5.609162215549E-09
     6.214544575012E-10 5.210000000000E+02 2.035000000000E+03 0.000000000000E+00
     3.120000000000E+00 0.000000000000E+00 2.328306436539E-10 2.328306436539E-10
     1.452850000000E+05 0.000000000000E+00 0.000000000000E+00 0.000000000000E+00
E09 2019 01 07 16 10 00 6.565225427039E-03-1.129762949859E-11 0.000000000000E+00
     1.130000000000E+02 3.334375000000E+01 3.566577133682E-09 2.861406200528E+00
     1.603737473488E-06 2.462138654664E-04 7.083639502525E-06 5.440608066559E+03
     1.446000000000E+05-1.676380634308E-08 1.235126988111E+00 3.911554813385E-08
     9.582748252500E-01 1.883125000000E+02 1.082498097019E-01-5.594161590713E-09
     6.171685646908E-10 5.210000000000E+02 2.035000000000E+03 0.000000000000E+00
     3.120000000000E+00 0.000000000000E+00-3.492459654808E-09-3.958120942116E-09
     1.452850000000E+05 0.000000000000E+00 0.000000000000E+00 0.000000000000E+00
E11 2019 01 07 16 10 00 5.719248612877E-03 9.663381206337E-13 0.000000000000E+00
     1.130000000000E+02-1.410625000000E+02 2.962623405157E-09-8.517234429573E-01
    -6.530433893204E-06 2.471130574122E-04 3.874301910400E-07 5.440605438232E+03
     1.446000000000E+05-3.725290298462E-08-8.614216228340E-01 1.117587089539E-08
     9.819294147644E-01 3.397812500000E+02-3.664593813499E-01-5.858101156284E-09
    -2.364384200378E-10 5.210000000000E+02 2.035000000000E+03 0.000000000000E+00
     3.120000000000E+00 0.000000000000E+00-1.839362084866E-08-1.979060471058E-08
     1.452850000000E+05 0.000000000000E+00 0.000000000000E+00 0.000000000000E+00
E13 2019 01 07 16 10 00 3.814437077381E-04 4.831690603169E-13 0.000000000000E+00
     1.130000000000E+02-1.140000000000E+02 2.925479000800E-09-2.765330442518E+00
    -5.390495061874E-06 3.364749718457E-04-3.632158041000E-07 5.440598215103E+03
     1.446000000000E+05 5.960464477539E-08-8.667195894355E-01-9.313225746155E-09
     9.851703532367E-01 3.573750000000E+02-1.588037224513E+00-5.790598344521E-09
    -1.810789712374E-10 5.210000000000E+02 2.035000000000E+03 0.000000000000E+00
     3.120000000000E+00 4.550000000000E+02-4.423782229424E-09-5.355104804039E-09
     1.452850000000E+05 0.000000000000E+00 0.000000000000E+00 0.000000000000E+00
E14 2019 01 07 16 10 00 6.463369878475E-03-5.570655048359E-12 0.000000000000E+00
     1.130000000000E+02 3.368750000000E+01 3.309066407327E-09 6.764039595342E-01
    -2.738088369370E-07 1.663772151805E-01 2.374872565269E-06 5.289340494156E+03
     1.446000000000E+05 3.127381205559E-06-1.462332432198E+00-6.087124347687E-06
     8.825634486644E-01 2.839375000000E+02 1.454200832776E+00-4.309822378544E-09
     1.265767009991E-09 5.210000000000E+02 2.035000000000E+03 0.000000000000E+00
     3.120000000000E+00 4.550000000000E+02 3.329478204250E-08 3.748573362827E-08
     1.452850000000E+05 0.000000000000E+00 0.000000000000E+00 0.000000000000E+00
E19 2019 01 07 16 10 00-9.306066203862E-06 3.126388037344E-13 0.000000000000E+00
     1.130000000000E+02 4.109375000000E+01 3.540861776820E-09 2.295087793447E+00
     1.892447471619E-06 1.365641364828E-04 6.889924407005E-06 5.440608997345E+03
     1.446000000000E+05 3.725290298462E-09 1.240483777186E+00 1.676380634308E-08
     9.580299108198E-01 1.920000000000E+02 2.324737185721E+00-5.653092616856E-09
     5.964534161075E-10 5.210000000000E+02 2.035000000000E+03 0.000000000000E+00
     3.120000000000E+00 0.000000000000E+00-8.847564458847E-09-9.313225746155E-09
     1.452850000000E+05 0.000000000000E+00 0.000000000000E+00 0.000000000000E+00
E21 2019 01 07 16 10 00-5.132718360983E-04-1.875832822407E-12 0.000000000000E+00
     1.130000000000E+02 9.150000000000E+01 2.394742607785E-09-2.715794343758E+00
     4.207715392113E-06 4.815706051886E-05 1.205317676067E-05 5.440635824203E+03
     1.446000000000E+05 9.313225746155E-09-2.949587122166E+00 5.587935447693E-09
     9.898887146211E-01 9.437500000000E+01-3.145007648592E-01-5.096283709244E-09
    -3.914448766789E-10 5.210000000000E+02 2.035000000000E+03 0.000000000000E+00
     3.120000000000E+00 0.000000000000E+00-2.793967723846E-09-3.259629011154E-09
     1.452850000000E+05 0.000000000000E+00 0.000000000000E+00 0.000000000000E+00
E25 2019 01 07 16 10 00 1.930829312187E-03-1.141131633631E-11 0.000000000000E+00
     1.130000000000E+02 1.174687500000E+02 2.334025792971E-09 1.479094784543E+00
     5.347654223442E-06 2.166192280129E-04 1.218169927597E-05 5.440635889053E+03
     1.446000000000E+05 3.725290298462E-09-2.949596050355E+00-3.166496753693E-08
     9.898944609634E-01 8.856250000000E+01-1.366238418434E+00-5.040567102709E-09
    -4.457328522767E-10 5.210000000000E+02 2.035000000000E+03 0.000000000000E+00
     3.120000000000E+00 0.000000000000E+00-9.313225746155E-10-1.164153218269E-09
     1.452850000000E+05 0.000000000000E+00 0.000000000000E+00 0.000000000000E+00
E26 2019 01 07 16 10 00 5.046442092862E-03-4.330047431722E-11 0.000000000000E+00
     1.130000000000E+02-1.268437500000E+02 2.940836783371E-09-3.045993603528E+00
    -5.941838026047E-06 3.231175942346E-04 4.079192876816E-07 5.440612405777E+03
     1.446000000000E+05 2.980232238770E-08-8.577883487507E-01-4.470348358154E-08
     9.782883389389E-01 3.392812500000E+02-2.089183255828E+00-5.818099490054E-09
    -1.967939115420E-10 5.210000000000E+02 2.035000000000E+03 0.000000000000E+00
     3.120000000000E+00 0.000000000000E+00 1.164153218269E-09 1.164153218269E-09
     1.452850000000E+05 0.000000000000E+00 0.000000000000E+00 0.000000000000E+00
E27 2019 01 07 16 10 00 5.544557352550E-04-7.716494110355E-12 0.000000000000E+00
     1.130000000000E+02 8.715625000000E+01 2.396171238722E-09-1.335220950523E+00
     4.123896360397E-06 2.086688764393E-04 1.232326030731E-05 5.440632158279E+03
     1.446000000000E+05-3.166496753693E-08-2.949571710324E+00 4.656612873077E-08
     9.898618539823E-01 9.006250000000E+01-9.082340563254E-01-5.059139304888E-09
    -3.818016178556E-10 5.210000000000E+02 2.035000000000E+03 0.000000000000E+00
     3.120000000000E+00 0.000000000000E+00-2.793967723846E-09-3.259629011154E-09
     1.452850000000E+05 0.000000000000E+00 0.000000000000E+00 0.000000000000E+00
E30 2019 01 07 16 10 00 5.207285750657E-03-3.049649421882E-11 0.000000000000E+00
     1.130000000000E+02 9.128125000000E+01 2.318668010401E-09-1.970908744397E+00
     4.306435585022E-06 2.989599015564E-04 1.296959817410E-05 5.440624261856E+03
     1.446000000000E+05-3.352761268616E-08-2.943567618035E+00-4.470348358154E-08
     9.878777713373E-01 7.525000000000E+01 4.929299205783E-01-5.042352891380E-09
    -4.389468553270E-10 5.210000000000E+02 2.035000000000E+03 0.000000000000E+00
     3.120000000000E+00 0.000000000000E+00-3.026798367500E-09-3.725290298462E-09
     1.452850000000E+05 0.000000000000E+00 0.000000000000E+00 0.000000000000E+00
E36 2019 01 07 16 10 00 7.624102290720E-04-4.533262654149E-12 0.000000000000E+00
     1.130000000000E+02-1.334062500000E+02 2.941193941105E-09-3.765395949684E-01
    -6.172806024551E-06 3.278966760263E-04 4.656612873077E-08 5.440597652435E+03
     1.446000000000E+05-7.078051567078E-08-8.667291408277E-01 3.725290298462E-08
     9.851749453366E-01 3.518125000000E+02-1.621714521799E+00-5.822385382865E-09
    -2.350097891010E-10 5.210000000000E+02 2.035000000000E+03 0.000000000000E+00
     3.120000000000E+00 4.550000000000E+02 9.313225746155E-10 1.164153218269E-09
     1.452850000000E+05 0.000000000000E+00 0.000000000000E+00 0.000000000000E+00
E02 2019 01 07 16 10 00 4.235649248585E-05 1.534772309242E-12 0.000000000000E+00
     1.130000000000E+02 1.077812500000E+02 2.312953486654E-09-4.232922112025E-01
     4.878267645836E-06 2.676256699488E-04 1.310184597969E-05 5.440622949600E+03
     1.446000000000E+05 7.636845111847E-08-2.947013542052E+00-9.499490261078E-08
     9.903344701486E-01 7.275000000000E+01-2.687687183131E-01-4.962706716655E-09
    -4.446613790741E-10 2.580000000000E+02 2.035000000000E+03 0.000000000000E+00
     3.120000000000E+00 0.000000000000E+00-6.053596735001E-09 0.000000000000E+00
     1.453000000000E+05 0.000000000000E+00 0.000000000000E+00 0.000000000000E+00
E04 2019 01 07 16 10 00-1.952027669176E-04-7.858602657507E-12 0.000000000000E+00
     1.130000000000E+02 4.178125000000E+01 3.628008263964E-09 1.731067286884E+00
     1.849606633186E-06 7.695110980421E-05 6.757676601410E-06 5.440607740402E+03
     1.446000000000E+05-1.490116119385E-08 1.243813794203E+00 1.862645149231E-09
     9.523008837028E-01 1.926250000000E+02 2.028124433078E+00-5.685593970667E-09
     6.007393089178E-10 2.580000000000E+02 2.035000000000E+03 0.000000000000E+00
     3.120000000000E+00 0.000000000000E+00-8.149072527885E-09 0.000000000000E+00
     1.453000000000E+05 0.000000000000E+00 0.000000000000E+00 0.000000000000E+00
